STARLINK-31579          
1 59267U 24050P   26068.59996892 -.00000505  00000+0 -49165-5 0  9990
2 59267  53.1605 181.4925 0001119  76.2634 283.8492 15.30195118110531
PHISAT 2                
1 60470U 24149C   26068.78834181  .00008925  00000+0  31421-3 0  9996
2 60470  97.3806 148.6498 0001175 168.6230 191.5037 15.29548631 86792
